ORBCOMM FM05            
1 25117U 97084F   24233.58644885  .00005356  00000+0  16129-2 0  9995
2 25117  45.0163   8.8859 0003556 182.9116 177.1715 14.43387682397130
ORBCOMM FM06            
1 25118U 97084G   24233.70366404  .00005068  00000+0  15253-2 0  9995
2 25118  45.0157   8.4259 0003212 197.7146 294.1489 14.43486766398086
ORBCOMM FM07            
1 25119U 97084H   24234.50684245  .00004934  00000+0  14890-2 0  9998
2 25119  45.0156   5.1922 0004093 176.1169 183.9714 14.43396360398199
ORBCOMM FM03            
1 25158U 98007B   24233.62132439  .00003876  00000+0  14530-2 0  9997
2 25158 107.9721 238.8399 0045537  52.5783 307.9487 14.32688844380968
ORBCOMM FM04            
1 25159U 98007C   24234.42852843  .00003689  00000+0  13805-2 0  9991
2 25159 107.9707 243.5046 0041148  48.6264 311.8402 14.32964479381366
ORBCOMM FM17            
1 25413U 98046A   24234.15988501  .00003204  00000+0  11974-2 0  9996
2 25413  44.9926 232.1391 0001315 230.5498 129.5232 14.33553914360262
ORBCOMM FM18            
1 25414U 98046B   24234.16062033  .00004324  00000+0  15075-2 0  9991
2 25414  44.9928 156.9946 0003207 224.5091 135.5499 14.36475738361249
ORBCOMM FM19            
1 25415U 98046C   24233.25909785  .00004090  00000+0  14338-2 0  9996
2 25415  44.9935 162.8082 0001856 219.5687 268.2417 14.36300249360908
